ONEWEB-0699             
1 61605U 24188M   25049.58335648  .00000013  00000+0  00000+0 0  9995
2 61605  87.9046 132.6512 0000748 116.7647 297.6749 13.15311401 18109
ONEWEB-0700             
1 61606U 24188N   25049.58335648  .00040599  00000+0  11551+0 0  9992
2 61606  87.8805 132.6568 0001880  83.4750 342.0420 13.10520465 18159
ONEWEB-0701             
1 61607U 24188P   25049.58335648  .00000013  00000+0  00000+0 0  9997
2 61607  87.9085 132.6565 0000692  66.5754 249.5700 13.16824621 18298
ONEWEB-0702             
1 61608U 24188Q   25049.58335648 -.00721712  00000+0 -39058+0 0  9991
2 61608  87.0730 120.6282 0006574 144.7300  24.4649 14.15368054 18881
ONEWEB-0704             
1 61609U 24188R   25049.58335648  .00000013  00000+0  00000+0 0  9999
2 61609  87.8986 132.5444 0001113  72.7856 326.0318 13.10955426 18103
ONEWEB-0705             
1 61610U 24188S   25049.58335648  .00000013  00000+0  00000+0 0  9991
2 61610  87.9007 132.6647 0002890  84.3582 282.0671 13.14221837 18260
